start=new Date('2022-07-03T00:00:00.000Z').valueOf();
sats=[{"APOAPSIS":"548.401","MEAN_MOTION_DDOT":"0.0000000000000","MEAN_MOTION":"15.06395240","LAUNCH_DATE":"2020-11-25","MEAN_ELEMENT_THEORY":"SGP4","TLE_LINE1":"1 47147U 20088AB  22183.38107057 -.00000189  00000-0  62288-5 0  9998","MEAN_ANOMALY":"299.6474","ARG_OF_PERICENTER":"60.4683","BSTAR":"0.00000622880000","RA_OF_ASC_NODE":"225.4428","FILE":"3506647","REV_AT_EPOCH":"8892","CENTER_NAME":"EARTH","ELEMENT_SET_NO":"999","ECCENTRICITY":"0.00016930","NORAD_CAT_ID":"47147","OBJECT_NAME":"STARLINK-1860","RCS_SIZE":"LARGE","EPHEMERIS_TYPE":"0","OBJECT_ID":"2020-088AB","SITE":"AFETR","TIME_SYSTEM":"UTC","GP_ID":"207265878","COUNTRY_CODE":"US","PERIOD":"95.592","OBJECT_TYPE":"PAYLOAD","TLE_LINE2":"2 47147  53.0527 225.4428 0001693  60.4683 299.6474 15.06395240 88923","MEAN_MOTION_DOT":"-0.00000189","EPOCH":"2022-07-02T09:08:44.497248","PERIAPSIS":"546.056","DECAY_DATE":null,"INCLINATION":"53.0527","SEMIMAJOR_AXIS":"6925.363","REF_FRAME":"TEME","CLASSIFICATION_TYPE":"U"},{"DECAY_DATE":null,"INCLINATION":"53.0540","REF_FRAME":"TEME","CLASSIFICATION_TYPE":"U","SEMIMAJOR_AXIS":"6925.342","OBJECT_TYPE":"PAYLOAD","MEAN_MOTION_DOT":"-0.00000640","EPOCH":"2022-07-02T13:19:32.112192","TLE_LINE2":"2 47148  53.0540 214.6649 0001628  59.2797 300.8352 15.06402177 89338","PERIAPSIS":"546.079","GP_ID":"207271690","COUNTRY_CODE":"US","PERIOD":"95.592","EPHEMERIS_TYPE":"0","OBJECT_ID":"2020-088AC","SITE":"AFETR","TIME_SYSTEM":"UTC","FILE":"3506692","RA_OF_ASC_NODE":"214.6649","REV_AT_EPOCH":"8933","ECCENTRICITY":"0.00016280","ELEMENT_SET_NO":"999","CENTER_NAME":"EARTH","NORAD_CAT_ID":"47148","OBJECT_NAME":"STARLINK-1861","RCS_SIZE":"LARGE","BSTAR":"-0.00002409400000","MEAN_ANOMALY":"300.8352","TLE_LINE1":"1 47148U 20088AC  22183.55523278 -.00000640  00000-0 -24094-4 0  9990","ARG_OF_PERICENTER":"59.2797","MEAN_MOTION_DDOT":"0.0000000000000","APOAPSIS":"548.334","MEAN_MOTION":"15.06402177","MEAN_ELEMENT_THEORY":"SGP4","LAUNCH_DATE":"2020-11-25"},{"REF_FRAME":"TEME","CLASSIFICATION_TYPE":"U","SEMIMAJOR_AXIS":"6925.358","DECAY_DATE":null,"INCLINATION":"53.0540","MEAN_MOTION_DOT":"0.00001724","EPOCH":"2022-07-02T12:25:08.655456","TLE_LINE2":"2 47149  53.0540 224.8187 0001183  75.5213 284.5907 15.06396913 89670","PERIAPSIS":"546.404","OBJECT_TYPE":"PAYLOAD","GP_ID":"207266879","COUNTRY_CODE":"US","PERIOD":"95.592","SITE":"AFETR","TIME_SYSTEM":"UTC","OBJECT_ID":"2020-088AD","EPHEMERIS_TYPE":"0","OBJECT_NAME":"STARLINK-1862","NORAD_CAT_ID":"47149","RCS_SIZE":"LARGE","RA_OF_ASC_NODE":"224.8187","FILE":"3506647","REV_AT_EPOCH":"8967","ECCENTRICITY":"0.00011830","ELEMENT_SET_NO":"999","CENTER_NAME":"EARTH","BSTAR":"0.00013464000000","MEAN_ANOMALY":"284.5907","TLE_LINE1":"1 47149U 20088AD  22183.51746129  .00001724  00000-0  13464-3 0  9999","ARG_OF_PERICENTER":"75.5213","MEAN_MOTION":"15.06396913","LAUNCH_DATE":"2020-11-25","MEAN_ELEMENT_THEORY":"SGP4","APOAPSIS":"548.042","MEAN_MOTION_DDOT":"0.0000000000000"},{"APOAPSIS":"548.263","MEAN_MOTION_DDOT":"0.0000000000000","MEAN_ELEMENT_THEORY":"SGP4","LAUNCH_DATE":"2020-11-25","MEAN_MOTION":"15.06393751","ARG_OF_PERICENTER":"62.3581","TLE_LINE1":"1 47150U 20088AE  22183.51101167  .00000783  00000-0  71444-4 0  9995","MEAN_ANOMALY":"297.7559","BSTAR":"0.00007144400000","ELEMENT_SET_NO":"999","ECCENTRICITY":"0.00014880","CENTER_NAME":"EARTH","RA_OF_ASC_NODE":"214.8435","FILE":"3506647","REV_AT_EPOCH":"8908","RCS_SIZE":"LARGE","NORAD_CAT_ID":"47150","OBJECT_NAME":"STARLINK-1863","EPHEMERIS_TYPE":"0","OBJECT_ID":"2020-088AE","TIME_SYSTEM":"UTC","SITE":"AFETR","PERIOD":"95.593","COUNTRY_CODE":"US","GP_ID":"207267629","OBJECT_TYPE":"PAYLOAD","PERIAPSIS":"546.202","TLE_LINE2":"2 47150  53.0536 214.8435 0001488  62.3581 297.7559 15.06393751 89083","MEAN_MOTION_DOT":"0.00000783","EPOCH":"2022-07-02T12:15:51.408288","INCLINATION":"53.0536","DECAY_DATE":null,"SEMIMAJOR_AXIS":"6925.368","CLASSIFICATION_TYPE":"U","REF_FRAME":"TEME"},{"MEAN_MOTION_DDOT":"0.0000000000000","APOAPSIS":"548.224","LAUNCH_DATE":"2020-11-25","MEAN_ELEMENT_THEORY":"SGP4","MEAN_MOTION":"15.06401704","ARG_OF_PERICENTER":"58.2726","MEAN_ANOMALY":"301.8406","TLE_LINE1":"1 47151U 20088AF  22183.51007835  .00000755  00000-0  69543-4 0  9999","BSTAR":"0.00006954300000","ELEMENT_SET_NO":"999","CENTER_NAME":"EARTH","ECCENTRICITY":"0.00014660","RA_OF_ASC_NODE":"224.8651","FILE":"3506647","REV_AT_EPOCH":"8893","RCS_SIZE":"LARGE","OBJECT_NAME":"STARLINK-1864","NORAD_CAT_ID":"47151","EPHEMERIS_TYPE":"0","OBJECT_ID":"2020-088AF","TIME_SYSTEM":"UTC","SITE":"AFETR","PERIOD":"95.592","GP_ID":"207266378","COUNTRY_CODE":"US","OBJECT_TYPE":"PAYLOAD","PERIAPSIS":"546.193","MEAN_MOTION_DOT":"0.00000755","EPOCH":"2022-07-02T12:14:30.769440","TLE_LINE2":"2 47151  53.0530 224.8651 0001466  58.2726 301.8406 15.06401704 88939","INCLINATION":"53.0530","DECAY_DATE":null,"REF_FRAME":"TEME","CLASSIFICATION_TYPE":"U","SEMIMAJOR_AXIS":"6925.343"},{"OBJECT_TYPE":"PAYLOAD","PERIAPSIS":"546.264","TLE_LINE2":"2 47152  53.0528 224.9132 0001362  72.3964 287.7173 15.06402136 88931","MEAN_MOTION_DOT":"0.00001145","EPOCH":"2022-07-02T11:51:55.643328","INCLINATION":"53.0528","DECAY_DATE":null,"SEMIMAJOR_AXIS":"6925.342","CLASSIFICATION_TYPE":"U","REF_FRAME":"TEME","OBJECT_ID":"2020-088AG","EPHEMERIS_TYPE":"0","TIME_SYSTEM":"UTC","SITE":"AFETR","PERIOD":"95.592","COUNTRY_CODE":"US","GP_ID":"207266129","BSTAR":"0.00009573000000","ECCENTRICITY":"0.00013620","ELEMENT_SET_NO":"999","CENTER_NAME":"EARTH","FILE":"3506647","RA_OF_ASC_NODE":"224.9132","REV_AT_EPOCH":"8893","RCS_SIZE":"LARGE","OBJECT_NAME":"STARLINK-1866","NORAD_CAT_ID":"47152","MEAN_MOTION_DDOT":"0.0000000000000","APOAPSIS":"548.150","LAUNCH_DATE":"2020-11-25","MEAN_ELEMENT_THEORY":"SGP4","MEAN_MOTION":"15.06402136","ARG_OF_PERICENTER":"72.3964","TLE_LINE1":"1 47152U 20088AG  22183.49439402  .00001145  00000-0  95730-4 0  9997","MEAN_ANOMALY":"287.7173"},{"DECAY_DATE":null,"INCLINATION":"53.0540","SEMIMAJOR_AXIS":"6925.357","REF_FRAME":"TEME","CLASSIFICATION_TYPE":"U","OBJECT_TYPE":"PAYLOAD","TLE_LINE2":"2 47153  53.0540 230.1720 0001539  63.2444 296.8702 15.06397101 88862","MEAN_MOTION_DOT":"-0.00000582","EPOCH":"2022-07-02T11:50:00.841920","PERIAPSIS":"546.157","COUNTRY_CODE":"US","GP_ID":"207267379","PERIOD":"95.592","EPHEMERIS_TYPE":"0","OBJECT_ID":"2020-088AH","SITE":"AFETR","TIME_SYSTEM":"UTC","FILE":"3506647","RA_OF_ASC_NODE":"230.1720","REV_AT_EPOCH":"8886","ECCENTRICITY":"0.00015390","ELEMENT_SET_NO":"999","CENTER_NAME":"EARTH","NORAD_CAT_ID":"47153","OBJECT_NAME":"STARLINK-1867","RCS_SIZE":"LARGE","BSTAR":"-0.00002017200000","TLE_LINE1":"1 47153U 20088AH  22183.49306530 -.00000582  00000-0 -20172-4 0  9997","MEAN_ANOMALY":"296.8702","ARG_OF_PERICENTER":"63.2444","MEAN_MOTION_DDOT":"0.0000000000000","APOAPSIS":"548.288","MEAN_MOTION":"15.06397101","LAUNCH_DATE":"2020-11-25","MEAN_ELEMENT_THEORY":"SGP4"},{"BSTAR":"-0.00005028800000","OBJECT_NAME":"STARLINK-1868","NORAD_CAT_ID":"47154","RCS_SIZE":"LARGE","REV_AT_EPOCH":"8908","FILE":"3506647","RA_OF_ASC_NODE":"214.7420","ECCENTRICITY":"0.00019040","ELEMENT_SET_NO":"999","CENTER_NAME":"EARTH","MEAN_MOTION":"15.06391785","MEAN_ELEMENT_THEORY":"SGP4","LAUNCH_DATE":"2020-11-25","APOAPSIS":"548.557","MEAN_MOTION_DDOT":"0.0000000000000","MEAN_ANOMALY":"303.2036","TLE_LINE1":"1 47154U 20088AJ  22183.53311857 -.00001030  00000-0 -50288-4 0  9991","ARG_OF_PERICENTER":"56.9136","MEAN_MOTION_DOT":"-0.00001030","EPOCH":"2022-07-02T12:47:41.444448","TLE_LINE2":"2 47154  53.0534 214.7420 0001904  56.9136 303.2036 15.06391785 89084","PERIAPSIS":"545.920","OBJECT_TYPE":"PAYLOAD","REF_FRAME":"TEME","CLASSIFICATION_TYPE":"U","SEMIMAJOR_AXIS":"6925.374","DECAY_DATE":null,"INCLINATION":"53.0534","SITE":"AFETR","TIME_SYSTEM":"UTC","OBJECT_ID":"2020-088AJ","EPHEMERIS_TYPE":"0","GP_ID":"207267130","COUNTRY_CODE":"US","PERIOD":"95.593"},{"COUNTRY_CODE":"US","GP_ID":"207265879","PERIOD":"95.592","SITE":"AFETR","TIME_SYSTEM":"UTC","EPHEMERIS_TYPE":"0","OBJECT_ID":"2020-088AK","SEMIMAJOR_AXIS":"6925.365","REF_FRAME":"TEME","CLASSIFICATION_TYPE":"U","DECAY_DATE":null,"INCLINATION":"53.0554","TLE_LINE2":"2 47155  53.0554 234.6019 0001463  71.3996 288.7151 15.06394473 88808","MEAN_MOTION_DOT":"-0.00000343","EPOCH":"2022-07-02T13:38:06.609120","PERIAPSIS":"546.217","OBJECT_TYPE":"PAYLOAD","TLE_LINE1":"1 47155U 20088AK  22183.56813205 -.00000343  00000-0 -41210-5 0  9991","MEAN_ANOMALY":"288.7151","ARG_OF_PERICENTER":"71.3996","MEAN_MOTION":"15.06394473","LAUNCH_DATE":"2020-11-25","MEAN_ELEMENT_THEORY":"SGP4","APOAPSIS":"548.244","MEAN_MOTION_DDOT":"0.0000000000000","NORAD_CAT_ID":"47155","OBJECT_NAME":"STARLINK-1869","RCS_SIZE":"LARGE","FILE":"3506647","REV_AT_EPOCH":"8880","RA_OF_ASC_NODE":"234.6019","ELEMENT_SET_NO":"999","ECCENTRICITY":"0.00014630","CENTER_NAME":"EARTH","BSTAR":"-0.00000412100000"},{"EPHEMERIS_TYPE":"0","OBJECT_ID":"2020-088AM","TIME_SYSTEM":"UTC","SITE":"AFETR","PERIOD":"95.592","GP_ID":"207266629","COUNTRY_CODE":"US","OBJECT_TYPE":"PAYLOAD","PERIAPSIS":"546.227","TLE_LINE2":"2 47157  53.0544 224.7142 0001432  74.6711 285.4436 15.06398360 88947","MEAN_MOTION_DOT":"-0.00000253","EPOCH":"2022-07-02T12:56:58.339104","INCLINATION":"53.0544","DECAY_DATE":null,"SEMIMAJOR_AXIS":"6925.354","REF_FRAME":"TEME","CLASSIFICATION_TYPE":"U","APOAPSIS":"548.210","MEAN_MOTION_DDOT":"0.0000000000000","LAUNCH_DATE":"2020-11-25","MEAN_ELEMENT_THEORY":"SGP4","MEAN_MOTION":"15.06398360","ARG_OF_PERICENTER":"74.6711","TLE_LINE1":"1 47157U 20088AM  22183.53956411 -.00000253  00000-0  19073-5 0  9998","MEAN_ANOMALY":"285.4436","BSTAR":"0.00000190730000","ECCENTRICITY":"0.00014320","ELEMENT_SET_NO":"999","CENTER_NAME":"EARTH","FILE":"3506647","RA_OF_ASC_NODE":"224.7142","REV_AT_EPOCH":"8894","RCS_SIZE":"LARGE","NORAD_CAT_ID":"47157","OBJECT_NAME":"STARLINK-1871"}];
